SL-8 R/B                
1 11574U 79089B   26101.20548366  .00000221  00000+0  74775-4 0  9993
2 11574  74.0710  30.8510 0016246 198.5123 161.5445 14.42373484440794
SL-14 R/B               
1 11672U 80005B   26101.21040098  .00000491  00000+0  47059-4 0  9996
2 11672  82.5110 276.3771 0016988  58.1177 302.1692 14.90970149481336
SL-8 R/B                
1 12139U 81003B   26101.17078043  .00016226  00000+0  40311-3 0  9996
2 12139  82.9373 259.9530 0258147  65.8372 296.9615 15.12477032319587
SL-3 R/B                
1 12465U 81046B   26101.22160166  .00010145  00000+0  22938-3 0  9998
2 12465  81.2295 250.6484 0018026 265.8875  94.0308 15.42842705443445
SL-3 R/B                
1 12904U 81103B   26101.25867957  .00003431  00000+0  14987-3 0  9990
2 12904  81.1603 175.2239 0013505 172.4000 187.7439 15.21767945978183
SL-3 R/B                
1 13068U 82013B   26101.31984470  .00003171  00000+0  13550-3 0  9996
2 13068  81.1718 122.5148 0023454  71.4659 288.9119 15.22310776409318
SL-3 R/B                
1 13154U 82039B   26101.25567315  .00001599  00000+0  95427-4 0  9994
2 13154  81.1535 178.4054 0027920 214.8626 145.0772 15.10269023386559
SL-3 R/B                
1 13403U 82079B   26101.27675198  .00003871  00000+0  15171-3 0  9998
2 13403  81.1466 154.5936 0025169  58.1001 302.2677 15.25221592382666
SL-14 R/B               
1 13553U 82092B   26101.27730391  .00000342  00000+0  35585-4 0  9998
2 13553  82.5646 110.9095 0020048 188.6223 181.9258 14.86696719333773
SL-3 R/B                
1 13819U 83010B   26101.29764157  .00010618  00000+0  20558-3 0  9993
2 13819  81.1030 322.2364 0015094 295.6254  64.3431 15.47451691362983
SL-3 R/B                
1 14208U 83075B   26101.26578058  .00008400  00000+0  21625-3 0  9999
2 14208  97.6139 107.0970 0023192 111.7138 248.6579 15.39224812335161
COSMOS 1536             
1 14699U 84013A   26101.02298882  .00006822  00000+0  27705-3 0  9995
2 14699  82.5426  75.6897 0014901 161.0066 199.1730 15.24301863277543
SL-14 R/B               
1 14820U 84027B   26101.28409307  .00000398  00000+0  42621-4 0  9997
2 14820  82.5438 214.4448 0016966 221.8724 138.1196 14.86013638252477
SL-8 R/B                
1 15483U 85006B   26101.28473221  .00000165  00000+0  63287-4 0  9990
2 15483  74.0466 201.1702 0017307 108.6707 282.5612 14.37806505158717
SL-12 R/B(2)            
1 15772U 85042D   26101.21148323  .00000048  00000+0  42791-4 0  9993
2 15772  71.1106  19.0187 0032975  74.1471  77.4646 14.21992197119017
SL-14 R/B               
1 15945U 85069B   26101.12428868  .00000402  00000+0  42503-4 0  9994
2 15945  82.5298 354.4433 0020364  85.3134 275.0408 14.86469225177654
SL-16 R/B               
1 16182U 85097B   26101.17596384  .00000210  00000+0  12917-3 0  9995
2 16182  71.0017  72.1566 0008843 220.0019 150.2089 14.16603390 91839
