[{"OBJECT_NAME":"SL-8 R/B","OBJECT_ID":"1979-089B","EPOCH":"2026-04-11T04:55:53.788224","MEAN_MOTION":14.42373484,"ECCENTRICITY":0.00162466,"INCLINATION":74.071,"RA_OF_ASC_NODE":30.851,"ARG_OF_PERICENTER":198.5123,"MEAN_ANOMALY":161.5445,"EPHEMERIS_TYPE":0,"CLASSIFICATION_TYPE":"U","NORAD_CAT_ID":11574,"ELEMENT_SET_NO":999,"REV_AT_EPOCH":44079,"BSTAR":7.4775148e-5,"MEAN_MOTION_DOT":2.21e-6,"MEAN_MOTION_DDOT":0},{"OBJECT_NAME":"SL-14 R/B","OBJECT_ID":"1980-005B","EPOCH":"2026-04-11T05:02:58.644672","MEAN_MOTION":14.90970149,"ECCENTRICITY":0.00169883,"INCLINATION":82.511,"RA_OF_ASC_NODE":276.3771,"ARG_OF_PERICENTER":58.1177,"MEAN_ANOMALY":302.1692,"EPHEMERIS_TYPE":0,"CLASSIFICATION_TYPE":"U","NORAD_CAT_ID":11672,"ELEMENT_SET_NO":999,"REV_AT_EPOCH":48133,"BSTAR":4.7059297e-5,"MEAN_MOTION_DOT":4.91e-6,"MEAN_MOTION_DDOT":0},{"OBJECT_NAME":"SL-8 R/B","OBJECT_ID":"1981-003B","EPOCH":"2026-04-11T04:05:55.429152","MEAN_MOTION":15.12477032,"ECCENTRICITY":0.02581477,"INCLINATION":82.9373,"RA_OF_ASC_NODE":259.953,"ARG_OF_PERICENTER":65.8372,"MEAN_ANOMALY":296.9615,"EPHEMERIS_TYPE":0,"CLASSIFICATION_TYPE":"U","NORAD_CAT_ID":12139,"ELEMENT_SET_NO":999,"REV_AT_EPOCH":31958,"BSTAR":0.00040310837,"MEAN_MOTION_DOT":0.00016226,"MEAN_MOTION_DDOT":0},{"OBJECT_NAME":"SL-3 R/B","OBJECT_ID":"1981-046B","EPOCH":"2026-04-11T05:19:06.383424","MEAN_MOTION":15.42842705,"ECCENTRICITY":0.00180262,"INCLINATION":81.2295,"RA_OF_ASC_NODE":250.6484,"ARG_OF_PERICENTER":265.8875,"MEAN_ANOMALY":94.0308,"EPHEMERIS_TYPE":0,"CLASSIFICATION_TYPE":"U","NORAD_CAT_ID":12465,"ELEMENT_SET_NO":999,"REV_AT_EPOCH":44344,"BSTAR":0.00022937694,"MEAN_MOTION_DOT":0.00010145,"MEAN_MOTION_DDOT":0},{"OBJECT_NAME":"SL-3 R/B","OBJECT_ID":"1981-103B","EPOCH":"2026-04-11T06:12:29.914848","MEAN_MOTION":15.21767945,"ECCENTRICITY":0.00135051,"INCLINATION":81.1603,"RA_OF_ASC_NODE":175.2239,"ARG_OF_PERICENTER":172.4,"MEAN_ANOMALY":187.7439,"EPHEMERIS_TYPE":0,"CLASSIFICATION_TYPE":"U","NORAD_CAT_ID":12904,"ELEMENT_SET_NO":999,"REV_AT_EPOCH":97818,"BSTAR":0.00014986851,"MEAN_MOTION_DOT":3.431e-5,"MEAN_MOTION_DDOT":0},{"OBJECT_NAME":"SL-3 R/B","OBJECT_ID":"1982-013B","EPOCH":"2026-04-11T07:40:34.582080","MEAN_MOTION":15.22310776,"ECCENTRICITY":0.00234542,"INCLINATION":81.1718,"RA_OF_ASC_NODE":122.5148,"ARG_OF_PERICENTER":71.4659,"MEAN_ANOMALY":288.9119,"EPHEMERIS_TYPE":0,"CLASSIFICATION_TYPE":"U","NORAD_CAT_ID":13068,"ELEMENT_SET_NO":999,"REV_AT_EPOCH":40931,"BSTAR":0.00013549724,"MEAN_MOTION_DOT":3.171e-5,"MEAN_MOTION_DDOT":0},{"OBJECT_NAME":"SL-3 R/B","OBJECT_ID":"1982-039B","EPOCH":"2026-04-11T06:08:10.160160","MEAN_MOTION":15.10269023,"ECCENTRICITY":0.00279203,"INCLINATION":81.1535,"RA_OF_ASC_NODE":178.4054,"ARG_OF_PERICENTER":214.8626,"MEAN_ANOMALY":145.0772,"EPHEMERIS_TYPE":0,"CLASSIFICATION_TYPE":"U","NORAD_CAT_ID":13154,"ELEMENT_SET_NO":999,"REV_AT_EPOCH":38655,"BSTAR":9.5426618e-5,"MEAN_MOTION_DOT":1.599e-5,"MEAN_MOTION_DDOT":0},{"OBJECT_NAME":"SL-3 R/B","OBJECT_ID":"1982-079B","EPOCH":"2026-04-11T06:38:31.371072","MEAN_MOTION":15.25221592,"ECCENTRICITY":0.00251691,"INCLINATION":81.1466,"RA_OF_ASC_NODE":154.5936,"ARG_OF_PERICENTER":58.1001,"MEAN_ANOMALY":302.2677,"EPHEMERIS_TYPE":0,"CLASSIFICATION_TYPE":"U","NORAD_CAT_ID":13403,"ELEMENT_SET_NO":999,"REV_AT_EPOCH":38266,"BSTAR":0.00015171253,"MEAN_MOTION_DOT":3.871e-5,"MEAN_MOTION_DDOT":0},{"OBJECT_NAME":"SL-14 R/B","OBJECT_ID":"1982-092B","EPOCH":"2026-04-11T06:39:19.057824","MEAN_MOTION":14.86696719,"ECCENTRICITY":0.00200482,"INCLINATION":82.5646,"RA_OF_ASC_NODE":110.9095,"ARG_OF_PERICENTER":188.6223,"MEAN_ANOMALY":181.9258,"EPHEMERIS_TYPE":0,"CLASSIFICATION_TYPE":"U","NORAD_CAT_ID":13553,"ELEMENT_SET_NO":999,"REV_AT_EPOCH":33377,"BSTAR":3.5584699e-5,"MEAN_MOTION_DOT":3.42e-6,"MEAN_MOTION_DDOT":0},{"OBJECT_NAME":"SL-3 R/B","OBJECT_ID":"1983-010B","EPOCH":"2026-04-11T07:08:36.231648","MEAN_MOTION":15.47451691,"ECCENTRICITY":0.00150949,"INCLINATION":81.103,"RA_OF_ASC_NODE":322.2364,"ARG_OF_PERICENTER":295.6254,"MEAN_ANOMALY":64.3431,"EPHEMERIS_TYPE":0,"CLASSIFICATION_TYPE":"U","NORAD_CAT_ID":13819,"ELEMENT_SET_NO":999,"REV_AT_EPOCH":36298,"BSTAR":0.00020558359,"MEAN_MOTION_DOT":0.00010618,"MEAN_MOTION_DDOT":0},{"OBJECT_NAME":"SL-3 R/B","OBJECT_ID":"1983-075B","EPOCH":"2026-04-11T06:22:43.442112","MEAN_MOTION":15.39224812,"ECCENTRICITY":0.00231925,"INCLINATION":97.6139,"RA_OF_ASC_NODE":107.097,"ARG_OF_PERICENTER":111.7138,"MEAN_ANOMALY":248.6579,"EPHEMERIS_TYPE":0,"CLASSIFICATION_TYPE":"U","NORAD_CAT_ID":14208,"ELEMENT_SET_NO":999,"REV_AT_EPOCH":33516,"BSTAR":0.00021625095,"MEAN_MOTION_DOT":8.4e-5,"MEAN_MOTION_DDOT":0},{"OBJECT_NAME":"COSMOS 1536","OBJECT_ID":"1984-013A","EPOCH":"2026-04-11T00:33:06.234048","MEAN_MOTION":15.24301863,"ECCENTRICITY":0.00149012,"INCLINATION":82.5426,"RA_OF_ASC_NODE":75.6897,"ARG_OF_PERICENTER":161.0066,"MEAN_ANOMALY":199.173,"EPHEMERIS_TYPE":0,"CLASSIFICATION_TYPE":"U","NORAD_CAT_ID":14699,"ELEMENT_SET_NO":999,"REV_AT_EPOCH":27754,"BSTAR":0.00027704825,"MEAN_MOTION_DOT":6.822e-5,"MEAN_MOTION_DDOT":0},{"OBJECT_NAME":"SL-14 R/B","OBJECT_ID":"1984-027B","EPOCH":"2026-04-11T06:49:05.641248","MEAN_MOTION":14.86013638,"ECCENTRICITY":0.00169665,"INCLINATION":82.5438,"RA_OF_ASC_NODE":214.4448,"ARG_OF_PERICENTER":221.8724,"MEAN_ANOMALY":138.1196,"EPHEMERIS_TYPE":0,"CLASSIFICATION_TYPE":"U","NORAD_CAT_ID":14820,"ELEMENT_SET_NO":999,"REV_AT_EPOCH":25247,"BSTAR":4.2621258e-5,"MEAN_MOTION_DOT":3.98e-6,"MEAN_MOTION_DDOT":0},{"OBJECT_NAME":"SL-8 R/B","OBJECT_ID":"1985-006B","EPOCH":"2026-04-11T06:50:00.862944","MEAN_MOTION":14.37806505,"ECCENTRICITY":0.0017307,"INCLINATION":74.0466,"RA_OF_ASC_NODE":201.1702,"ARG_OF_PERICENTER":108.6707,"MEAN_ANOMALY":282.5612,"EPHEMERIS_TYPE":0,"CLASSIFICATION_TYPE":"U","NORAD_CAT_ID":15483,"ELEMENT_SET_NO":999,"REV_AT_EPOCH":15871,"BSTAR":6.3286807e-5,"MEAN_MOTION_DOT":1.65e-6,"MEAN_MOTION_DDOT":0},{"OBJECT_NAME":"SL-12 R/B(2)","OBJECT_ID":"1985-042D","EPOCH":"2026-04-11T05:04:32.151072","MEAN_MOTION":14.21992197,"ECCENTRICITY":0.00329755,"INCLINATION":71.1106,"RA_OF_ASC_NODE":19.0187,"ARG_OF_PERICENTER":74.1471,"MEAN_ANOMALY":77.4646,"EPHEMERIS_TYPE":0,"CLASSIFICATION_TYPE":"U","NORAD_CAT_ID":15772,"ELEMENT_SET_NO":999,"REV_AT_EPOCH":11901,"BSTAR":4.2791367e-5,"MEAN_MOTION_DOT":4.8e-7,"MEAN_MOTION_DDOT":0},{"OBJECT_NAME":"SL-14 R/B","OBJECT_ID":"1985-069B","EPOCH":"2026-04-11T02:58:58.541952","MEAN_MOTION":14.86469225,"ECCENTRICITY":0.00203642,"INCLINATION":82.5298,"RA_OF_ASC_NODE":354.4433,"ARG_OF_PERICENTER":85.3134,"MEAN_ANOMALY":275.0408,"EPHEMERIS_TYPE":0,"CLASSIFICATION_TYPE":"U","NORAD_CAT_ID":15945,"ELEMENT_SET_NO":999,"REV_AT_EPOCH":17765,"BSTAR":4.2502734e-5,"MEAN_MOTION_DOT":4.02e-6,"MEAN_MOTION_DDOT":0},{"OBJECT_NAME":"SL-16 R/B","OBJECT_ID":"1985-097B","EPOCH":"2026-04-11T04:13:23.275776","MEAN_MOTION":14.1660339,"ECCENTRICITY":0.00088437,"INCLINATION":71.0017,"RA_OF_ASC_NODE":72.1566,"ARG_OF_PERICENTER":220.0019,"MEAN_ANOMALY":150.2089,"EPHEMERIS_TYPE":0,"CLASSIFICATION_TYPE":"U","NORAD_CAT_ID":16182,"ELEMENT_SET_NO":999,"REV_AT_EPOCH":9183,"BSTAR":0.00012916564,"MEAN_MOTION_DOT":2.1e-6,"MEAN_MOTION_DDOT":0}]
